APRIZESAT 2             
1 28366U 04025A   26156.45611716  .00000155  00000+0  61640-4 0  9998
2 28366  98.1006 323.1013 0104312 285.6907  73.2793 14.38031312149957
SAUDICOMSAT 1           
1 28369U 04025D   26157.29181548  .00000476  00000+0  12007-3 0  9997
2 28369  98.5772 167.1293 0033227  58.1450 302.2973 14.55465155162542
SAUDICOMSAT 2           
1 28370U 04025E   26157.29108538  .00000320  00000+0  93859-4 0  9990
2 28370  98.6642 169.2286 0054194 293.2076  66.3415 14.49974994158529
APRIZESAT 1             
1 28372U 04025G   26157.26723554  .00000239  00000+0  70982-4 0  9991
2 28372  98.6304 167.6954 0044429 186.8262 173.2333 14.51771760160321
NANOSAT-1               
1 28493U 04049B   26157.62325533  .00001203  00000+0  16576-3 0  9996
2 28493  98.2264 294.0269 0003423 345.5733  14.5380 14.80138999153881
SAUDICOMSAT 7           
1 31119U 07012C   26157.46595706  .00000566  00000+0  11043-3 0  9996
2 31119  98.3773 131.3785 0054645 229.2376 130.4077 14.66099949 20862
SAUDICOMSAT 6           
1 31121U 07012E   26157.14411204  .00000828  00000+0  16744-3 0  9998
2 31121  98.4092 124.4556 0071858   2.3006 357.8511 14.62544561 18578
SAUDICOMSAT 5           
1 31124U 07012H   26157.45433336  .00000663  00000+0  12259-3 0  9999
2 31124  98.3484 132.1163 0047843 157.8901 202.4382 14.68144071 22026
SAUDICOMSAT 3           
1 31125U 07012J   26156.41299627  .00000963  00000+0  16492-3 0  9994
2 31125  98.3138 131.6035 0040506  89.2367 271.3479 14.70685866 23093
SAUDICOMSAT 4           
1 31127U 07012L   26157.42797052  .00000642  00000+0  12783-3 0  9996
2 31127  98.3978 129.7793 0062165 292.5587  66.9044 14.64501418 19717
APRIZESAT 4             
1 35684U 09041D   26157.19822005  .00000839  00000+0  10654-3 0  9996
2 35684  98.1412 232.2996 0043196 359.0984   1.0144 14.83864919909738
APRIZESAT 3             
1 35686U 09041F   26157.39884419  .00001548  00000+0  13773-3 0  9990
2 35686  98.2057 310.1071 0062864 102.4108 258.4156 14.96211856914767
S-NET D                 
1 43186U 18014G   26157.50957745  .00006064  00000+0  31371-3 0  9992
2 43186  97.5366  62.3671 0009771  62.3986 297.8239 15.16570883457148
S-NET B                 
1 43187U 18014H   26157.45484124  .00006078  00000+0  31469-3 0  9996
2 43187  97.5374  62.2988 0010381  58.1599 302.0643 15.16540940457138
S-NET A                 
1 43188U 18014J   26157.17861230  .00006396  00000+0  33063-3 0  9998
2 43188  97.5380  62.2313 0010321  59.3797 300.8453 15.16575646457096
S-NET C                 
1 43189U 18014K   26156.99678978  .00006551  00000+0  33891-3 0  9995
2 43189  97.5399  62.1237 0011496  53.0599 307.1685 15.16527728455617
SALSAT                  
1 46495U 20068K   26157.28697036  .00010659  00000+0  37345-3 0  9991
2 46495  97.8852 159.6892 0009191 351.5700   8.5383 15.29640191313697
OOV-CUBE (TUBSAT-30)    
1 60240U 24128F   26157.54215999  .00003011  00000+0  23491-3 0  9990
2 60240  61.9952 262.6903 0045968 131.3951 229.1106 15.02727006104511
LPNTSAT-001 (IOD-1)     
1 68408U 26065A   26157.40162066  .00003556  00000+0  17513-3 0  9999
2 68408  97.4028  38.1390 0017699  46.5605 313.7098 15.18480677 10627
